NORAD_CAT_ID,OBJECT_NAME,OBJECT_TYPE,EPOCH,MEAN_MOTION,ECCENTRICITY,INCLINATION,RA_OF_ASC_NODE,ARG_OF_PERICENTER,MEAN_ANOMALY,BSTAR,MEAN_MOTION_DOT,MEAN_MOTION_DDOT,TLE_LINE0,TLE_LINE1,TLE_LINE2,SEMIMAJOR_AXIS,PERIOD,APOGEE,PERIGEE,DECAYED
53436.0,STARLINK-4527,PAYLOAD,2024-05-21 08:36:37,15.0883848,0.0001543,53.2148,174.6761,105.542,254.5742,0.00012099,1.638e-05,0.0,0 STARLINK-4527,1 53436U 22097BA  24142.35876281  .00001638  00000-0  12099-3 0  9996,2 53436  53.2148 174.6761 0001543 105.5420 254.5742 15.08838480 99550,6917.885,95.438,540.817,538.683,0.0
53436.0,STARLINK-4527,PAYLOAD,2024-05-22 11:38:09,15.08857904,0.0001661,53.2154,169.621,90.8415,269.2767,0.00032899,4.954e-05,0.0,0 STARLINK-4527,1 53436U 22097BA  24143.48483398  .00004954  00000-0  32899-3 0  9998,2 53436  53.2154 169.6210 0001661  90.8415 269.2767 15.08857904 99249,6917.826,95.436,540.84,538.542,0.0
53436.0,STARLINK-4527,PAYLOAD,2024-05-23 05:07:24,15.0884336,0.0001636,53.2151,166.3453,112.9704,247.1461,9.0042e-05,1.145e-05,0.0,0 STARLINK-4527,1 53436U 22097BA  24144.21347666  .00001145  00000-0  90042-4 0  9991,2 53436  53.2151 166.3453 0001636 112.9704 247.1461 15.08843360 99357,6917.87,95.437,540.867,538.603,0.0
53436.0,STARLINK-4527,PAYLOAD,2024-05-23 08:18:11,15.08834966,0.0001616,53.2162,165.7613,92.5948,267.5229,8.4347e-05,1.054e-05,0.0,0 STARLINK-4527,1 53436U 22097BA  24144.34596276  .00001054  00000-0  84347-4 0  9998,2 53436  53.2162 165.7613 0001616  92.5948 267.5229 15.08834966 99373,6917.896,95.438,540.879,538.643,0.0
53436.0,STARLINK-4527,PAYLOAD,2024-05-24 04:58:12,15.08812159,0.0001946,53.2161,161.8851,96.334,263.7874,0.00042026,6.402e-05,0.0,0 STARLINK-4527,1 53436U 22097BA  24145.20708968  .00006402  00000-0  42026-3 0  9996,2 53436  53.2161 161.8851 0001946  96.3340 263.7874 15.08812159 99506,6917.965,95.439,541.177,538.484,0.0
53436.0,STARLINK-4527,PAYLOAD,2024-05-24 06:33:35,15.08839705,0.0001492,53.2172,161.5992,101.9818,258.1342,-1.7693e-05,-5.7e-06,0.0,0 STARLINK-4527,1 53436U 22097BA  24145.27332268 -.00000570  00000-0 -17693-4 0  9994,2 53436  53.2172 161.5992 0001492 101.9818 258.1342 15.08839705 99515,6917.881,95.438,540.778,538.714,0.0
53436.0,STARLINK-4527,PAYLOAD,2024-05-25 11:10:31,15.08834647,0.0001352,53.2163,156.241,95.1739,264.9408,6.384e-05,7.28e-06,0.0,0 STARLINK-4527,1 53436U 22097BA  24146.46564543  .00000728  00000-0  63840-4 0  9997,2 53436  53.2163 156.2410 0001352  95.1739 264.9408 15.08834647 99699,6917.897,95.438,540.697,538.826,0.0
53436.0,STARLINK-4527,PAYLOAD,2024-05-26 04:39:45,15.08854308,0.000108,53.2162,152.9691,92.6118,267.4997,0.00021503,3.137e-05,0.0,0 STARLINK-4527,1 53436U 22097BA  24147.19427142  .00003137  00000-0  21503-3 0  9997,2 53436  53.2162 152.9691 0001080  92.6118 267.4997 15.08854308 99803,6917.837,95.437,540.449,538.955,0.0
53436.0,STARLINK-4527,PAYLOAD,2024-05-26 09:25:55,15.08838285,0.0001159,53.2161,152.0782,82.8048,277.3076,7.6298e-05,9.27e-06,0.0,0 STARLINK-4527,1 53436U 22097BA  24147.39300503  .00000927  00000-0  76298-4 0  9996,2 53436  53.2161 152.0782 0001159  82.8048 277.3076 15.08838285 99831,6917.886,95.438,540.552,538.949,0.0
53436.0,STARLINK-4527,PAYLOAD,2024-05-27 07:41:19,15.0883857,0.000131,53.2162,147.915,93.3434,266.7708,6.8019e-05,7.95e-06,0.0,0 STARLINK-4527,1 53436U 22097BA  24148.32036673  .00000795  00000-0  68019-4 0  9999,2 53436  53.2162 147.9150 0001310  93.3434 266.7708 15.08838570100451,6917.885,95.438,540.656,538.844,0.0
53436.0,STARLINK-4527,PAYLOAD,2024-05-27 17:13:38,15.08838799,0.0001403,53.2166,146.1304,85.7751,274.3402,6.0685e-05,6.78e-06,0.0,0 STARLINK-4527,1 53436U 22097BA  24148.71780720  .00000678  00000-0  60685-4 0  9992,2 53436  53.2166 146.1304 0001403  85.7751 274.3402 15.08838799100030,6917.884,95.438,540.72,538.778,0.0
53436.0,STARLINK-4527,PAYLOAD,2024-05-28 09:07:29,15.08841777,0.000135,53.216,143.1563,89.2124,270.9023,5.8497e-05,6.43e-06,0.0,0 STARLINK-4527,1 53436U 22097BA  24149.38020518  .00000643  00000-0  58497-4 0  9998,2 53436  53.2160 143.1563 0001350  89.2124 270.9023 15.08841777100617,6917.875,95.437,540.674,538.806,0.0
53436.0,STARLINK-4527,PAYLOAD,2024-05-29 04:12:07,15.08837107,0.0001368,53.2157,139.5875,87.4285,272.6864,1.8309e-05,3e-08,0.0,0 STARLINK-4527,1 53436U 22097BA  24150.17508969  .00000003  00000-0  18309-4 0  9996,2 53436  53.2157 139.5875 0001368  87.4285 272.6864 15.08837107100259,6917.889,95.438,540.701,538.808,0.0
53436.0,STARLINK-4527,PAYLOAD,2024-05-29 05:47:30,15.08837214,0.0001371,53.2158,139.2901,87.3231,272.7919,1.8201e-05,2e-08,0.0,0 STARLINK-4527,1 53436U 22097BA  24150.24132968  .00000002  00000-0  18201-4 0  9996,2 53436  53.2158 139.2901 0001371  87.3231 272.7919 15.08837214100746,6917.889,95.438,540.702,538.805,0.0
53436.0,STARLINK-4527,PAYLOAD,2024-05-30 04:02:54,15.088441,0.0001411,53.2162,135.127,102.4612,257.6538,7.2536e-05,8.67e-06,0.0,0 STARLINK-4527,1 53436U 22097BA  24151.16868344  .00000867  00000-0  72536-4 0  9992,2 53436  53.2162 135.1270 0001411 102.4612 257.6538 15.08844100100406,6917.868,95.437,540.709,538.757,0.0
53436.0,STARLINK-4527,PAYLOAD,2024-05-30 08:49:03,15.08845671,0.0001409,53.2162,134.2348,100.8831,259.232,8.2275e-05,1.022e-05,0.0,0 STARLINK-4527,1 53436U 22097BA  24151.36740176  .00001022  00000-0  82275-4 0  9991,2 53436  53.2162 134.2348 0001409 100.8831 259.2320 15.08845671100911,6917.863,95.437,540.703,538.753,0.0
53436.0,STARLINK-4527,PAYLOAD,2024-05-31 03:53:41,15.08837842,0.0001383,53.216,130.6658,98.2507,261.8642,3.7009e-05,3.01e-06,0.0,0 STARLINK-4527,1 53436U 22097BA  24152.16228863  .00000301  00000-0  37009-4 0  9998,2 53436  53.2160 130.6658 0001383  98.2507 261.8642 15.08837842100551,6917.887,95.438,540.709,538.795,0.0
53436.0,STARLINK-4527,PAYLOAD,2024-05-31 08:39:51,15.08839294,0.0001427,53.2162,129.7737,100.7758,259.3395,4.8417e-05,4.83e-06,0.0,0 STARLINK-4527,1 53436U 22097BA  24152.36100735  .00000483  00000-0  48417-4 0  9993,2 53436  53.2162 129.7737 0001427 100.7758 259.3395 15.08839294101063,6917.883,95.438,540.735,538.76,0.0
53436.0,STARLINK-4527,PAYLOAD,2024-05-31 22:58:19,15.08837591,0.0001442,53.2164,127.0983,93.2543,266.8614,-2.3739e-05,-6.66e-06,0.0,0 STARLINK-4527,1 53436U 22097BA  24152.95717133 -.00000666  00000-0 -23739-4 0  9999,2 53436  53.2164 127.0983 0001442  93.2543 266.8614 15.08837591101159,6917.888,95.438,540.75,538.755,0.0
53436.0,STARLINK-4527,PAYLOAD,2024-06-01 05:19:51,15.08840856,0.0001387,53.2167,125.9098,96.1318,263.9832,2.2912e-06,-2.51e-06,0.0,0 STARLINK-4527,1 53436U 22097BA  24153.22212836 -.00000251  00000-0  22912-5 0  9992,2 53436  53.2167 125.9098 0001387  96.1318 263.9832 15.08840856100715,6917.878,95.438,540.702,538.783,0.0
53436.0,STARLINK-4527,PAYLOAD,2024-06-02 05:10:39,15.08830861,0.000141,53.2168,121.4506,100.5027,259.6124,2.9087e-05,1.75e-06,0.0,0 STARLINK-4527,1 53436U 22097BA  24154.21573678  .00000175  00000-0  29087-4 0  9999,2 53436  53.2168 121.4506 0001410 100.5027 259.6124 15.08830861100862,6917.908,95.438,540.749,538.798,0.0
53436.0,STARLINK-4527,PAYLOAD,2024-06-02 06:46:02,15.08834291,0.0001392,53.217,121.1529,94.7142,265.4009,1.5856e-05,-3.6e-07,0.0,0 STARLINK-4527,1 53436U 22097BA  24154.28197564 -.00000036  00000-0  15856-4 0  9998,2 53436  53.2170 121.1529 0001392  94.7142 265.4009 15.08834291101351,6917.898,95.438,540.726,538.8,0.0
53436.0,STARLINK-4527,PAYLOAD,2024-06-03 05:01:26,15.08842278,0.0001398,53.2174,116.9898,92.5692,267.546,8.6737e-05,1.093e-05,0.0,0 STARLINK-4527,1 53436U 22097BA  24155.20933133  .00001093  00000-0  86737-4 0  9990,2 53436  53.2174 116.9898 0001398  92.5692 267.5460 15.08842278101019,6917.873,95.437,540.706,538.771,0.0
53436.0,STARLINK-4527,PAYLOAD,2024-06-03 14:33:45,15.08832289,0.000132,53.2172,115.2025,85.145,274.9693,3.9829e-07,-2.82e-06,0.0,0 STARLINK-4527,1 53436U 22097BA  24155.60678066 -.00000282  00000-0  39829-6 0  9997,2 53436  53.2172 115.2025 0001320  85.1450 274.9693 15.08832289101556,6917.904,95.438,540.682,538.856,0.0
53436.0,STARLINK-4527,PAYLOAD,2024-06-03 20:55:18,15.08827962,0.0001416,53.2164,114.014,86.8677,273.2477,3.5612e-05,2.79e-06,0.0,0 STARLINK-4527,1 53436U 22097BA  24155.87174379  .00000279  00000-0  35612-4 0  9993,2 53436  53.2164 114.0140 0001416  86.8677 273.2477 15.08827962101595,6917.917,95.438,540.762,538.803,0.0
53436.0,STARLINK-4527,PAYLOAD,2024-06-04 03:16:51,15.08835149,0.0001448,53.2172,112.8259,78.0757,282.0397,2.8662e-05,1.68e-06,0.0,0 STARLINK-4527,1 53436U 22097BA  24156.13670252  .00000168  00000-0  28662-4 0  9998,2 53436  53.2172 112.8259 0001448  78.0757 282.0397 15.08835149101638,6917.895,95.438,540.762,538.759,0.0
53436.0,STARLINK-4527,PAYLOAD,2024-06-04 14:24:32,15.088448,0.0001616,53.2174,110.7453,85.0119,275.1058,9.8046e-05,1.273e-05,0.0,0 STARLINK-4527,1 53436U 22097BA  24156.60037531  .00001273  00000-0  98046-4 0  9998,2 53436  53.2174 110.7453 0001616  85.0119 275.1058 15.08844800101226,6917.866,95.437,540.849,538.613,0.0
53436.0,STARLINK-4527,PAYLOAD,2024-06-04 20:46:04,15.08848923,0.000153,53.2175,109.5551,93.8977,266.219,0.00011474,1.539e-05,0.0,0 STARLINK-4527,1 53436U 22097BA  24156.86533093  .00001539  00000-0  11474-3 0  9994,2 53436  53.2175 109.5551 0001530  93.8977 266.2190 15.08848923101741,6917.853,95.437,540.777,538.66,0.0
53436.0,STARLINK-4527,PAYLOAD,2024-06-05 03:07:36,15.08858827,0.0001587,53.2175,108.3662,84.2999,275.8174,0.00013113,1.801e-05,0.0,0 STARLINK-4527,1 53436U 22097BA  24157.13028387  .00001801  00000-0  13113-3 0  9994,2 53436  53.2175 108.3662 0001587  84.2999 275.8174 15.08858827101305,6917.823,95.436,540.786,538.59,0.0
53436.0,STARLINK-4527,PAYLOAD,2024-06-05 14:15:19,15.08836087,0.0001864,53.2168,106.2833,84.6385,275.482,6.9067e-05,8.11e-06,0.0,0 STARLINK-4527,1 53436U 22097BA  24157.59397932  .00000811  00000-0  69067-4 0  9999,2 53436  53.2168 106.2833 0001864  84.6385 275.4820 15.08836087101853,6917.892,95.438,541.047,538.468,0.0
